[{"OBJECT_NAME":"AETHER-12","OBJECT_ID":"2026-004W","EPOCH":"2026-03-09T23:36:30.678624","MEAN_MOTION":14.8783269,"ECCENTRICITY":0.00067724,"INCLINATION":97.8006,"RA_OF_ASC_NODE":69.1805,"ARG_OF_PERICENTER":98.9277,"MEAN_ANOMALY":261.2706,"EPHEMERIS_TYPE":0,"CLASSIFICATION_TYPE":"U","NORAD_CAT_ID":67383,"ELEMENT_SET_NO":999,"REV_AT_EPOCH":853,"BSTAR":0.00015033861,"MEAN_MOTION_DOT":1.32e-5,"MEAN_MOTION_DDOT":0},{"OBJECT_NAME":"CZ-6A DEB","OBJECT_ID":"2022-151ADL","EPOCH":"2026-03-09T17:28:13.716192","MEAN_MOTION":14.75641631,"ECCENTRICITY":0.00643507,"INCLINATION":98.632,"RA_OF_ASC_NODE":141.8297,"ARG_OF_PERICENTER":118.8328,"MEAN_ANOMALY":241.936,"EPHEMERIS_TYPE":0,"CLASSIFICATION_TYPE":"U","NORAD_CAT_ID":56588,"ELEMENT_SET_NO":999,"REV_AT_EPOCH":16282,"BSTAR":0.0023477028,"MEAN_MOTION_DOT":0.00016555,"MEAN_MOTION_DDOT":0}]
